0 FENGYUN 1C DEB
1 36212U 99025DUM 13286.10338636  .00054867  00000-0  17370-2 0  1979
2 36212 099.1051 242.9211 0135861 174.9703 185.5804 15.23972958276543
0 FENGYUN 1C DEB
1 36212U 99025DUM 13290.10796773  .00067353  00000-0  21473-2 0  1988
2 36212 099.0579 247.6764 0128188 164.0034 198.3731 15.24586420277158
0 FENGYUN 1C DEB
1 36212U 99025DUM 13291.68270917  .00075477  00000-0  23538-2 0  1990
2 36212 099.0763 249.6049 0131427 158.5100 202.4937 15.24856503277396
0 FENGYUN 1C DEB
1 36212U 99025DUM 13294.11034044  .00076224  00000-0  23538-2 0  2004
2 36212 099.0763 252.5450 0130806 150.3636 210.5092 15.25222024277768
0 FENGYUN 1C DEB
1 36212U 99025DUM 13295.68474479  .00076216  00000-0  23573-2 0  2018
2 36212 099.0684 254.4473 0128336 145.1547 215.7320 15.25454409278007
